{"type": "FeatureCollection", "features": [ {"type": "Feature", "properties": {"norad_id": 30860, "name": "FENGYUN 1C DEB", "group": "fengyun-1c-debris", "lat": 62.705561807358166, "lon": 50.50100616736282, "alt_km": 806.1428016655145, "timestamp": "2025-12-20T14:38:02.248938+00:00", "meta": {"OBJECT_NAME": "FENGYUN 1C DEB", "OBJECT_ID": "1999-025AWW", "EPOCH": "2025-12-20T04:13:32.478240", "MEAN_MOTION": 14.25547183, "ECCENTRICITY": 0.00402556, "INCLINATION": 98.9056, "RA_OF_ASC_NODE": 67.7503, "ARG_OF_PERICENTER": 166.8741, "MEAN_ANOMALY": 193.3496, "EPHEMERIS_TYPE": 0, "CLASSIFICATION_TYPE": "U", "NORAD_CAT_ID": 30860, "ELEMENT_SET_NO": 999, "REV_AT_EPOCH": 96622, "BSTAR": 0.0010419804, "MEAN_MOTION_DOT": 2.441e-05, "MEAN_MOTION_DDOT": 0}, "tle": {"line1": "1 30860U 99025AWW 25354.17607035  .00002441  00000+0  10420-2 0  9999", "line2": "2 30860  98.9056  67.7503 0040255 166.8741 193.3496 14.25547183966223"}}, "geometry": {"type": "Point", "coordinates": [50.50100616736282, 62.705561807358166]}}, {"type": "Feature", "properties": {"norad_id": 30862, "name": "FENGYUN 1C DEB", "group": "fengyun-1c-debris", "lat": 3.5223554696417874, "lon": 85.21897939571218, "alt_km": 777.4514757271581, "timestamp": "2025-12-20T14:38:02.248948+00:00", "meta": {"OBJECT_NAME": "FENGYUN 1C DEB", "OBJECT_ID": "1999-025AWY", "EPOCH": "2025-12-17T05:13:21.995616", "MEAN_MOTION": 14.43167905, "ECCENTRICITY": 0.00522868, "INCLINATION": 98.9603, "RA_OF_ASC_NODE": 82.2098, "ARG_OF_PERICENTER": 150.6942, "MEAN_ANOMALY": 239.608, "EPHEMERIS_TYPE": 0, "CLASSIFICATION_TYPE": "U", "NORAD_CAT_ID": 30862, "ELEMENT_SET_NO": 999, "REV_AT_EPOCH": 96784, "BSTAR": 0.0025604626, "MEAN_MOTION_DOT": 8.708e-05, "MEAN_MOTION_DDOT": 0}, "tle": {"line1": "1 30862U 99025AWY 25351.21761569  .00008708  00000+0  25605-2 0  9999", "line2": "2 30862  98.9603  82.2098 0052286 150.6942 239.6080 14.43167905967847"}}, "geometry": {"type": "Point", "coordinates": [85.21897939571218, 3.5223554696417874]}}, {"type": "Feature", "properties": {"norad_id": 30863, "name": "FENGYUN 1C DEB", "group": "fengyun-1c-debris", "lat": -49.8521524840271, "lon": -165.20191354272706, "alt_km": 1282.214473216024, "timestamp": "2025-12-20T14:38:02.248958+00:00", "meta": {"OBJECT_NAME": "FENGYUN 1C DEB", "OBJECT_ID": "1999-025AWZ", "EPOCH": "2025-12-20T00:21:35.593920", "MEAN_MOTION": 12.40536262, "ECCENTRICITY": 0.08774951, "INCLINATION": 99.121, "RA_OF_ASC_NODE": 183.3656, "ARG_OF_PERICENTER": 235.096, "MEAN_ANOMALY": 289.8085, "EPHEMERIS_TYPE": 0, "CLASSIFICATION_TYPE": "U", "NORAD_CAT_ID": 30863, "ELEMENT_SET_NO": 999, "REV_AT_EPOCH": 59830, "BSTAR": 0.0025425483, "MEAN_MOTION_DOT": 1.304e-05, "MEAN_MOTION_DDOT": 0}, "tle": {"line1": "1 30863U 99025AWZ 25354.01499530  .00001304  00000+0  25425-2 0  9992", "line2": "2 30863  99.1210 183.3656 0877495 235.0960 289.8085 12.40536262598307"}}, "geometry": {"type": "Point", "coordinates": [-165.20191354272706, -49.8521524840271]}}, {"type": "Feature", "properties": {"norad_id": 30867, "name": "FENGYUN 1C DEB", "group": "fengyun-1c-debris", "lat": -19.252885595765466, "lon": 77.90480641433601, "alt_km": 829.7775151499627, "timestamp": "2025-12-20T14:38:02.248968+00:00", "meta": {"OBJECT_NAME": "FENGYUN 1C DEB", "OBJECT_ID": "1999-025AXD", "EPOCH": "2025-12-18T05:14:29.791968", "MEAN_MOTION": 14.28057797, "ECCENTRICITY": 0.00540947, "INCLINATION": 97.8775, "RA_OF_ASC_NODE": 258.5183, "ARG_OF_PERICENTER": 339.8314, "MEAN_ANOMALY": 173.0495, "EPHEMERIS_TYPE": 0, "CLASSIFICATION_TYPE": "U", "NORAD_CAT_ID": 30867, "ELEMENT_SET_NO": 999, "REV_AT_EPOCH": 96615, "BSTAR": 0.0020025766, "MEAN_MOTION_DOT": 5.016e-05, "MEAN_MOTION_DDOT": 0}, "tle": {"line1": "1 30867U 99025AXD 25352.21840037  .00005016  00000+0  20026-2 0  9994", "line2": "2 30867  97.8775 258.5183 0054094 339.8314 173.0495 14.28057797966150"}}, "geometry": {"type": "Point", "coordinates": [77.90480641433601, -19.252885595765466]}}, {"type": "Feature", "properties": {"norad_id": 30868, "name": "FENGYUN 1C DEB", "group": "fengyun-1c-debris", "lat": -78.11745513796343, "lon": -84.29474718735682, "alt_km": 858.7213016195255, "timestamp": "2025-12-20T14:38:02.248978+00:00", "meta": {"OBJECT_NAME": "FENGYUN 1C DEB", "OBJECT_ID": "1999-025AXE", "EPOCH": "2025-12-20T03:50:07.130400", "MEAN_MOTION": 14.1112369, "ECCENTRICITY": 0.0135534, "INCLINATION": 98.2632, "RA_OF_ASC_NODE": 231.6105, "ARG_OF_PERICENTER": 191.5185, "MEAN_ANOMALY": 321.0731, "EPHEMERIS_TYPE": 0, "CLASSIFICATION_TYPE": "U", "NORAD_CAT_ID": 30868, "ELEMENT_SET_NO": 999, "REV_AT_EPOCH": 96815, "BSTAR": 6.0171351e-05, "MEAN_MOTION_DOT": 7.9e-07, "MEAN_MOTION_DDOT": 0}, "tle": {"line1": "1 30868U 99025AXE 25354.15980475  .00000079  00000+0  60171-4 0  9992", "line2": "2 30868  98.2632 231.6105 0135534 191.5185 321.0731 14.11123690968150"}}, "geometry": {"type": "Point", "coordinates": [-84.29474718735682, -78.11745513796343]}}, {"type": "Feature", "properties": {"norad_id": 30872, "name": "FENGYUN 1C DEB", "group": "fengyun-1c-debris", "lat": 12.191357694743516, "lon": -130.45120576718628, "alt_km": 789.023357209262, "timestamp": "2025-12-20T14:38:02.248988+00:00", "meta": {"OBJECT_NAME": "FENGYUN 1C DEB", "OBJECT_ID": "1999-025AXJ", "EPOCH": "2025-12-20T02:19:23.094048", "MEAN_MOTION": 14.3945895, "ECCENTRICITY": 0.00405296, "INCLINATION": 99.1926, "RA_OF_ASC_NODE": 46.9941, "ARG_OF_PERICENTER": 6.8734, "MEAN_ANOMALY": 23.8694, "EPHEMERIS_TYPE": 0, "CLASSIFICATION_TYPE": "U", "NORAD_CAT_ID": 30872, "ELEMENT_SET_NO": 999, "REV_AT_EPOCH": 97842, "BSTAR": 0.00056969079, "MEAN_MOTION_DOT": 1.742e-05, "MEAN_MOTION_DDOT": 0}, "tle": {"line1": "1 30872U 99025AXJ 25354.09679507  .00001742  00000+0  56969-3 0  9998", "line2": "2 30872  99.1926  46.9941 0040529   6.8734  23.8694 14.39458950978429"}}, "geometry": {"type": "Point", "coordinates": [-130.45120576718628, 12.191357694743516]}}, {"type": "Feature", "properties": {"norad_id": 30873, "name": "FENGYUN 1C DEB", "group": "fengyun-1c-debris", "lat": -56.789385971371, "lon": 161.31284490258713, "alt_km": 766.6440243980496, "timestamp": "2025-12-20T14:38:02.248998+00:00", "meta": {"OBJECT_NAME": "FENGYUN 1C DEB", "OBJECT_ID": "1999-025AXK", "EPOCH": "2025-12-19T18:53:43.091520", "MEAN_MOTION": 14.19144223, "ECCENTRICITY": 0.01076938, "INCLINATION": 98.6116, "RA_OF_ASC_NODE": 353.8979, "ARG_OF_PERICENTER": 268.223, "MEAN_ANOMALY": 90.6609, "EPHEMERIS_TYPE": 0, "CLASSIFICATION_TYPE": "U", "NORAD_CAT_ID": 30873, "ELEMENT_SET_NO": 999, "REV_AT_EPOCH": 97292, "BSTAR": 0.00015222939, "MEAN_MOTION_DOT": 2.94e-06, "MEAN_MOTION_DDOT": 0}, "tle": {"line1": "1 30873U 99025AXK 25353.78730430  .00000294  00000+0  15223-3 0  9996", "line2": "2 30873  98.6116 353.8979 0107693 268.2230  90.6609 14.19144223972927"}}, "geometry": {"type": "Point", "coordinates": [161.31284490258713, -56.789385971371]}}, {"type": "Feature", "properties": {"norad_id": 30874, "name": "FENGYUN 1C DEB", "group": "fengyun-1c-debris", "lat": 10.582149208251442, "lon": -153.502410681057, "alt_km": 854.2564800942637, "timestamp": "2025-12-20T14:38:02.249008+00:00", "meta": {"OBJECT_NAME": "FENGYUN 1C DEB", "OBJECT_ID": "1999-025AXL", "EPOCH": "2025-12-19T00:45:01.403136", "MEAN_MOTION": 14.1966129, "ECCENTRICITY": 0.00416905, "INCLINATION": 98.4901, "RA_OF_ASC_NODE": 23.3849, "ARG_OF_PERICENTER": 22.4565, "MEAN_ANOMALY": 3.7904, "EPHEMERIS_TYPE": 0, "CLASSIFICATION_TYPE": "U", "NORAD_CAT_ID": 30874, "ELEMENT_SET_NO": 999, "REV_AT_EPOCH": 97110, "BSTAR": 0.00036442946, "MEAN_MOTION_DOT": 7.35e-06, "MEAN_MOTION_DDOT": 0}, "tle": {"line1": "1 30874U 99025AXL 25353.03126624  .00000735  00000+0  36443-3 0  9996", "line2": "2 30874  98.4901  23.3849 0041690  22.4565   3.7904 14.19661290971108"}}, "geometry": {"type": "Point", "coordinates": [-153.502410681057, 10.582149208251442]}}, {"type": "Feature", "properties": {"norad_id": 30876, "name": "FENGYUN 1C DEB", "group": "fengyun-1c-debris", "lat": 13.71429762408915, "lon": -22.780627178862492, "alt_km": 920.3421115591327, "timestamp": "2025-12-20T14:38:02.249018+00:00", "meta": {"OBJECT_NAME": "FENGYUN 1C DEB", "OBJECT_ID": "1999-025AXN", "EPOCH": "2025-12-20T06:03:31.400928", "MEAN_MOTION": 13.99177999, "ECCENTRICITY": 0.00662946, "INCLINATION": 98.8118, "RA_OF_ASC_NODE": 339.0451, "ARG_OF_PERICENTER": 256.492, "MEAN_ANOMALY": 118.0794, "EPHEMERIS_TYPE": 0, "CLASSIFICATION_TYPE": "U", "NORAD_CAT_ID": 30876, "ELEMENT_SET_NO": 999, "REV_AT_EPOCH": 95815, "BSTAR": 0.00046280457, "MEAN_MOTION_DOT": 6.41e-06, "MEAN_MOTION_DDOT": 0}, "tle": {"line1": "1 30876U 99025AXN 25354.25244677  .00000641  00000+0  46280-3 0  9998", "line2": "2 30876  98.8118 339.0451 0066294 256.4920 118.0794 13.99177999958153"}}, "geometry": {"type": "Point", "coordinates": [-22.780627178862492, 13.71429762408915]}}, {"type": "Feature", "properties": {"norad_id": 30878, "name": "FENGYUN 1C DEB", "group": "fengyun-1c-debris", "lat": 49.42468143448264, "lon": -173.80762146408094, "alt_km": 871.0448216347104, "timestamp": "2025-12-20T14:38:02.249028+00:00", "meta": {"OBJECT_NAME": "FENGYUN 1C DEB", "OBJECT_ID": "1999-025AXQ", "EPOCH": "2025-12-19T11:31:49.634112", "MEAN_MOTION": 14.11899957, "ECCENTRICITY": 0.0039902, "INCLINATION": 98.7203, "RA_OF_ASC_NODE": 354.7698, "ARG_OF_PERICENTER": 274.9563, "MEAN_ANOMALY": 238.1317, "EPHEMERIS_TYPE": 0, "CLASSIFICATION_TYPE": "U", "NORAD_CAT_ID": 30878, "ELEMENT_SET_NO": 999, "REV_AT_EPOCH": 96462, "BSTAR": 0.00045634, "MEAN_MOTION_DOT": 7.97e-06, "MEAN_MOTION_DDOT": 0}, "tle": {"line1": "1 30878U 99025AXQ 25353.48043558  .00000797  00000+0  45634-3 0  9993", "line2": "2 30878  98.7203 354.7698 0039902 274.9563 238.1317 14.11899957964624"}}, "geometry": {"type": "Point", "coordinates": [-173.80762146408094, 49.42468143448264]}}]}